{
  "type": "FeatureCollection",
  "features": [
    {
      "type": "Feature",
      "properties": {
        "norad_id": 66610,
        "name": "STARLINK-35680",
        "group": "last-30-days",
        "lat": -4.211478824762044,
        "lon": -115.10380830860035,
        "alt_km": 337.4286049269067,
        "timestamp": "2025-12-03T04:52:28.421875+00:00",
        "meta_object_name": "STARLINK-35680",
        "meta_object_id": "2025-270Y",
        "meta_epoch": "2025-12-02T20:00:03.000384",
        "meta_mean_motion": 15.79173963,
        "meta_eccentricity": 0.0001601,
        "meta_inclination": 42.999,
        "meta_ra_of_asc_node": 251.6838,
        "meta_arg_of_pericenter": 260.1048,
        "meta_mean_anomaly": 150.2091,
        "meta_ephemeris_type": 0,
        "meta_classification_type": "U",
        "meta_norad_cat_id": 66610,
        "meta_element_set_no": 999,
        "meta_rev_at_epoch": 291,
        "meta_bstar": -0.011103,
        "meta_mean_motion_dot": -0.01801814,
        "meta_mean_motion_ddot": 0,
        "tle_line1": "1 66610U 25270Y   25336.83336806 -.01801814  00000+0 -11103-1 0  9992",
        "tle_line2": "2 66610  42.9990 251.6838 0001601 260.1048 150.2091 15.79173963  2917"
      },
      "geometry": {
        "type": "Point",
        "coordinates": [
          -115.10380830860035,
          -4.211478824762044
        ]
      }
    },
    {
      "type": "Feature",
      "properties": {
        "norad_id": 66611,
        "name": "STARLINK-35583",
        "group": "last-30-days",
        "lat": -2.896008707517821,
        "lon": -113.6883625884073,
        "alt_km": 337.112608215798,
        "timestamp": "2025-12-03T04:52:28.421885+00:00",
        "meta_object_name": "STARLINK-35583",
        "meta_object_id": "2025-270Z",
        "meta_epoch": "2025-12-02T20:00:03.000384",
        "meta_mean_motion": 15.79185418,
        "meta_eccentricity": 0.000143,
        "meta_inclination": 42.999,
        "meta_ra_of_asc_node": 251.6788,
        "meta_arg_of_pericenter": 268.7722,
        "meta_mean_anomaly": 143.473,
        "meta_ephemeris_type": 0,
        "meta_classification_type": "U",
        "meta_norad_cat_id": 66611,
        "meta_element_set_no": 999,
        "meta_rev_at_epoch": 291,
        "meta_bstar": -0.011219,
        "meta_mean_motion_dot": -0.01818973,
        "meta_mean_motion_ddot": 0,
        "tle_line1": "1 66611U 25270Z   25336.83336806 -.01818973  00000+0 -11219-1 0  9995",
        "tle_line2": "2 66611  42.9990 251.6788 0001430 268.7722 143.4730 15.79185418  2917"
      },
      "geometry": {
        "type": "Point",
        "coordinates": [
          -113.6883625884073,
          -2.896008707517821
        ]
      }
    },
    {
      "type": "Feature",
      "properties": {
        "norad_id": 66612,
        "name": "STARLINK-36039",
        "group": "last-30-days",
        "lat": -1.4936885716501076,
        "lon": -112.18505321080845,
        "alt_km": 337.2193537930443,
        "timestamp": "2025-12-03T04:52:28.421897+00:00",
        "meta_object_name": "STARLINK-36039",
        "meta_object_id": "2025-270AA",
        "meta_epoch": "2025-12-02T20:00:03.000384",
        "meta_mean_motion": 15.79141975,
        "meta_eccentricity": 0.0001521,
        "meta_inclination": 42.9989,
        "meta_ra_of_asc_node": 251.6734,
        "meta_arg_of_pericenter": 264.3885,
        "meta_mean_anomaly": 149.9754,
        "meta_ephemeris_type": 0,
        "meta_classification_type": "U",
        "meta_norad_cat_id": 66612,
        "meta_element_set_no": 999,
        "meta_rev_at_epoch": 280,
        "meta_bstar": -0.011276,
        "meta_mean_motion_dot": -0.01823925,
        "meta_mean_motion_ddot": 0,
        "tle_line1": "1 66612U 25270AA  25336.83336806 -.01823925  00000+0 -11276-1 0  9992",
        "tle_line2": "2 66612  42.9989 251.6734 0001521 264.3885 149.9754 15.79141975  2805"
      },
      "geometry": {
        "type": "Point",
        "coordinates": [
          -112.18505321080845,
          -1.4936885716501076
        ]
      }
    },
    {
      "type": "Feature",
      "properties": {
        "norad_id": 66613,
        "name": "STARLINK-36037",
        "group": "last-30-days",
        "lat": -0.13023089085965237,
        "lon": -110.72615328537626,
        "alt_km": 337.1503990959345,
        "timestamp": "2025-12-03T04:52:28.421907+00:00",
        "meta_object_name": "STARLINK-36037",
        "meta_object_id": "2025-270AB",
        "meta_epoch": "2025-12-02T20:00:03.000384",
        "meta_mean_motion": 15.79128722,
        "meta_eccentricity": 0.0001616,
        "meta_inclination": 42.9989,
        "meta_ra_of_asc_node": 251.6684,
        "meta_arg_of_pericenter": 265.146,
        "meta_mean_anomaly": 151.2447,
        "meta_ephemeris_type": 0,
        "meta_classification_type": "U",
        "meta_norad_cat_id": 66613,
        "meta_element_set_no": 999,
        "meta_rev_at_epoch": 280,
        "meta_bstar": -0.011399,
        "meta_mean_motion_dot": -0.01840364,
        "meta_mean_motion_ddot": 0,
        "tle_line1": "1 66613U 25270AB  25336.83336806 -.01840364  00000+0 -11399-1 0  9995",
        "tle_line2": "2 66613  42.9989 251.6684 0001616 265.1460 151.2447 15.79128722  2803"
      },
      "geometry": {
        "type": "Point",
        "coordinates": [
          -110.72615328537626,
          -0.13023089085965237
        ]
      }
    },
    {
      "type": "Feature",
      "properties": {
        "norad_id": 66614,
        "name": "STARLINK-36040",
        "group": "last-30-days",
        "lat": 2.525571020423615,
        "lon": -107.8830706678403,
        "alt_km": 336.95860707712563,
        "timestamp": "2025-12-03T04:52:28.421919+00:00",
        "meta_object_name": "STARLINK-36040",
        "meta_object_id": "2025-270AC",
        "meta_epoch": "2025-12-02T20:00:03.000384",
        "meta_mean_motion": 15.79132968,
        "meta_eccentricity": 0.0001567,
        "meta_inclination": 42.9989,
        "meta_ra_of_asc_node": 251.6585,
        "meta_arg_of_pericenter": 263.6786,
        "meta_mean_anomaly": 156.6153,
        "meta_ephemeris_type": 0,
        "meta_classification_type": "U",
        "meta_norad_cat_id": 66614,
        "meta_element_set_no": 999,
        "meta_rev_at_epoch": 265,
        "meta_bstar": -0.01153,
        "meta_mean_motion_dot": -0.01859134,
        "meta_mean_motion_ddot": 0,
        "tle_line1": "1 66614U 25270AC  25336.83336806 -.01859134  00000+0 -11530-1 0  9998",
        "tle_line2": "2 66614  42.9989 251.6585 0001567 263.6786 156.6153 15.79132968  2656"
      },
      "geometry": {
        "type": "Point",
        "coordinates": [
          -107.8830706678403,
          2.525571020423615
        ]
      }
    },
    {
      "type": "Feature",
      "properties": {
        "norad_id": 66615,
        "name": "STARLINK-35988",
        "group": "last-30-days",
        "lat": 1.2323335115963743,
        "lon": -109.26855191453413,
        "alt_km": 337.1910547106954,
        "timestamp": "2025-12-03T04:52:28.421930+00:00",
        "meta_object_name": "STARLINK-35988",
        "meta_object_id": "2025-270AD",
        "meta_epoch": "2025-12-02T20:00:03.000384",
        "meta_mean_motion": 15.79104828,
        "meta_eccentricity": 0.0001506,
        "meta_inclination": 42.999,
        "meta_ra_of_asc_node": 251.6633,
        "meta_arg_of_pericenter": 260.8154,
        "meta_mean_anomaly": 157.6084,
        "meta_ephemeris_type": 0,
        "meta_classification_type": "U",
        "meta_norad_cat_id": 66615,
        "meta_element_set_no": 999,
        "meta_rev_at_epoch": 265,
        "meta_bstar": -0.011422,
        "meta_mean_motion_dot": -0.01841812,
        "meta_mean_motion_ddot": 0,
        "tle_line1": "1 66615U 25270AD  25336.83336806 -.01841812  00000+0 -11422-1 0  9993",
        "tle_line2": "2 66615  42.9990 251.6633 0001506 260.8154 157.6084 15.79104828  2652"
      },
      "geometry": {
        "type": "Point",
        "coordinates": [
          -109.26855191453413,
          1.2323335115963743
        ]
      }
    },
    {
      "type": "Feature",
      "properties": {
        "norad_id": 66616,
        "name": "STARLINK-35391",
        "group": "last-30-days",
        "lat": 3.8738875761680744,
        "lon": -106.43364893589701,
        "alt_km": 336.8560667673719,
        "timestamp": "2025-12-03T04:52:28.421940+00:00",
        "meta_object_name": "STARLINK-35391",
        "meta_object_id": "2025-270AE",
        "meta_epoch": "2025-12-02T20:00:03.000384",
        "meta_mean_motion": 15.79114523,
        "meta_eccentricity": 0.0001453,
        "meta_inclination": 42.9989,
        "meta_ra_of_asc_node": 251.6536,
        "meta_arg_of_pericenter": 263.9979,
        "meta_mean_anomaly": 158.3042,
        "meta_ephemeris_type": 0,
        "meta_classification_type": "U",
        "meta_norad_cat_id": 66616,
        "meta_element_set_no": 999,
        "meta_rev_at_epoch": 291,
        "meta_bstar": -0.011553,
        "meta_mean_motion_dot": -0.01860851,
        "meta_mean_motion_ddot": 0,
        "tle_line1": "1 66616U 25270AE  25336.83336806 -.01860851  00000+0 -11553-1 0  9993",
        "tle_line2": "2 66616  42.9989 251.6536 0001453 263.9979 158.3042 15.79114523  2917"
      },
      "geometry": {
        "type": "Point",
        "coordinates": [
          -106.43364893589701,
          3.8738875761680744
        ]
      }
    }
  ]
}